{"type": "FeatureCollection", "features": [ {"type": "Feature", "properties": {"norad_id": 66928, "name": "STARLINK-35944", "group": "last-30-days", "lat": 27.76408500986208, "lon": 59.98724022314316, "alt_km": 296.009688580034, "timestamp": "2025-12-15T11:38:35.908085+00:00", "meta": {"OBJECT_NAME": "STARLINK-35944", "OBJECT_ID": "2025-286D", "EPOCH": "2025-12-14T20:00:06.000192", "MEAN_MOTION": 15.92518752, "ECCENTRICITY": 7.839e-05, "INCLINATION": 53.1569, "RA_OF_ASC_NODE": 40.0576, "ARG_OF_PERICENTER": 71.6446, "MEAN_ANOMALY": 187.3065, "EPHEMERIS_TYPE": 0, "CLASSIFICATION_TYPE": "U", "NORAD_CAT_ID": 66928, "ELEMENT_SET_NO": 999, "REV_AT_EPOCH": 233, "BSTAR": -0.0036569365, "MEAN_MOTION_DOT": -0.01274459, "MEAN_MOTION_DDOT": 0.00047773107}, "tle": {"line1": "1 66928U 25286D   25348.83340278 -.01274459  47773-3 -36569-2 0  9997", "line2": "2 66928  53.1569  40.0576 0000783  71.6446 187.3065 15.92518752  2333"}}, "geometry": {"type": "Point", "coordinates": [59.98724022314316, 27.76408500986208]}}, {"type": "Feature", "properties": {"norad_id": 66929, "name": "STARLINK-36169", "group": "last-30-days", "lat": 31.73582180677802, "lon": 64.3556365599231, "alt_km": 294.74890389702523, "timestamp": "2025-12-15T11:38:35.908096+00:00", "meta": {"OBJECT_NAME": "STARLINK-36169", "OBJECT_ID": "2025-286E", "EPOCH": "2025-12-14T20:00:06.000192", "MEAN_MOTION": 15.92704816, "ECCENTRICITY": 8.264e-05, "INCLINATION": 53.1568, "RA_OF_ASC_NODE": 40.0471, "ARG_OF_PERICENTER": 68.6667, "MEAN_ANOMALY": 195.3348, "EPHEMERIS_TYPE": 0, "CLASSIFICATION_TYPE": "U", "NORAD_CAT_ID": 66929, "ELEMENT_SET_NO": 999, "REV_AT_EPOCH": 233, "BSTAR": -0.0036163289, "MEAN_MOTION_DOT": -0.01272649, "MEAN_MOTION_DDOT": 0.0004773627}, "tle": {"line1": "1 66929U 25286E   25348.83340278 -.01272649  47736-3 -36163-2 0  9996", "line2": "2 66929  53.1568  40.0471 0000826  68.6667 195.3348 15.92704816  2337"}}, "geometry": {"type": "Point", "coordinates": [64.3556365599231, 31.73582180677802]}}, {"type": "Feature", "properties": {"norad_id": 66930, "name": "STARLINK-36206", "group": "last-30-days", "lat": 32.93929129811909, "lon": 65.78843942199707, "alt_km": 294.462530145287, "timestamp": "2025-12-15T11:38:35.908106+00:00", "meta": {"OBJECT_NAME": "STARLINK-36206", "OBJECT_ID": "2025-286F", "EPOCH": "2025-12-14T20:00:06.000192", "MEAN_MOTION": 15.92771068, "ECCENTRICITY": 7.545e-05, "INCLINATION": 53.1568, "RA_OF_ASC_NODE": 40.0437, "ARG_OF_PERICENTER": 69.6179, "MEAN_ANOMALY": 195.9587, "EPHEMERIS_TYPE": 0, "CLASSIFICATION_TYPE": "U", "NORAD_CAT_ID": 66930, "ELEMENT_SET_NO": 999, "REV_AT_EPOCH": 233, "BSTAR": -0.0036510499, "MEAN_MOTION_DOT": -0.01289131, "MEAN_MOTION_DDOT": 0.00048899616}, "tle": {"line1": "1 66930U 25286F   25348.83340278 -.01289131  48900-3 -36510-2 0  9992", "line2": "2 66930  53.1568  40.0437 0000754  69.6179 195.9587 15.92771068  2334"}}, "geometry": {"type": "Point", "coordinates": [65.78843942199707, 32.93929129811909]}}, {"type": "Feature", "properties": {"norad_id": 66931, "name": "STARLINK-36130", "group": "last-30-days", "lat": 34.32195711023978, "lon": 67.51037467314424, "alt_km": 293.94930199906867, "timestamp": "2025-12-15T11:38:35.908116+00:00", "meta": {"OBJECT_NAME": "STARLINK-36130", "OBJECT_ID": "2025-286G", "EPOCH": "2025-12-14T20:00:06.000192", "MEAN_MOTION": 15.92837455, "ECCENTRICITY": 8.728e-05, "INCLINATION": 53.1567, "RA_OF_ASC_NODE": 40.04, "ARG_OF_PERICENTER": 68.427, "MEAN_ANOMALY": 198.9814, "EPHEMERIS_TYPE": 0, "CLASSIFICATION_TYPE": "U", "NORAD_CAT_ID": 66931, "ELEMENT_SET_NO": 999, "REV_AT_EPOCH": 233, "BSTAR": -0.0036303953, "MEAN_MOTION_DOT": -0.01286348, "MEAN_MOTION_DDOT": 0.00048739221}, "tle": {"line1": "1 66931U 25286G   25348.83340278 -.01286348  48739-3 -36304-2 0  9991", "line2": "2 66931  53.1567  40.0400 0000872  68.4270 198.9814 15.92837455  2333"}}, "geometry": {"type": "Point", "coordinates": [67.51037467314424, 34.32195711023978]}}, {"type": "Feature", "properties": {"norad_id": 66932, "name": "STARLINK-36177", "group": "last-30-days", "lat": 35.63700787346245, "lon": 69.23191931986693, "alt_km": 293.5380220654797, "timestamp": "2025-12-15T11:38:35.908128+00:00", "meta": {"OBJECT_NAME": "STARLINK-36177", "OBJECT_ID": "2025-286H", "EPOCH": "2025-12-14T20:00:06.000192", "MEAN_MOTION": 15.92912435, "ECCENTRICITY": 9.172e-05, "INCLINATION": 53.1567, "RA_OF_ASC_NODE": 40.0361, "ARG_OF_PERICENTER": 66.6456, "MEAN_ANOMALY": 202.5426, "EPHEMERIS_TYPE": 0, "CLASSIFICATION_TYPE": "U", "NORAD_CAT_ID": 66932, "ELEMENT_SET_NO": 999, "REV_AT_EPOCH": 233, "BSTAR": -0.0036702241, "MEAN_MOTION_DOT": -0.01305362, "MEAN_MOTION_DDOT": 0.00050096144}, "tle": {"line1": "1 66932U 25286H   25348.83340278 -.01305362  50096-3 -36702-2 0  9991", "line2": "2 66932  53.1567  40.0361 0000917  66.6456 202.5426 15.92912435  2339"}}, "geometry": {"type": "Point", "coordinates": [69.23191931986693, 35.63700787346245]}}, {"type": "Feature", "properties": {"norad_id": 66933, "name": "STARLINK-36157", "group": "last-30-days", "lat": 36.908228252642076, "lon": 70.98490893840409, "alt_km": 293.3040917414037, "timestamp": "2025-12-15T11:38:35.908140+00:00", "meta": {"OBJECT_NAME": "STARLINK-36157", "OBJECT_ID": "2025-286J", "EPOCH": "2025-12-14T20:00:06.000192", "MEAN_MOTION": 15.92979235, "ECCENTRICITY": 7.263e-05, "INCLINATION": 53.1567, "RA_OF_ASC_NODE": 40.0326, "ARG_OF_PERICENTER": 71.8138, "MEAN_ANOMALY": 199.1235, "EPHEMERIS_TYPE": 0, "CLASSIFICATION_TYPE": "U", "NORAD_CAT_ID": 66933, "ELEMENT_SET_NO": 999, "REV_AT_EPOCH": 233, "BSTAR": -0.0036688179, "MEAN_MOTION_DOT": -0.01309376, "MEAN_MOTION_DDOT": 0.00050410113}, "tle": {"line1": "1 66933U 25286J   25348.83340278 -.01309376  50410-3 -36688-2 0  9994", "line2": "2 66933  53.1567  40.0326 0000726  71.8138 199.1235 15.92979235  2334"}}, "geometry": {"type": "Point", "coordinates": [70.98490893840409, 36.908228252642076]}}, {"type": "Feature", "properties": {"norad_id": 66934, "name": "STARLINK-36153", "group": "last-30-days", "lat": 38.162202729334986, "lon": 72.81069583642814, "alt_km": 292.9402711755947, "timestamp": "2025-12-15T11:38:35.908170+00:00", "meta": {"OBJECT_NAME": "STARLINK-36153", "OBJECT_ID": "2025-286K", "EPOCH": "2025-12-14T20:00:06.000192", "MEAN_MOTION": 15.93053674, "ECCENTRICITY": 7.006e-05, "INCLINATION": 53.1566, "RA_OF_ASC_NODE": 40.0286, "ARG_OF_PERICENTER": 68.4195, "MEAN_ANOMALY": 204.2826, "EPHEMERIS_TYPE": 0, "CLASSIFICATION_TYPE": "U", "NORAD_CAT_ID": 66934, "ELEMENT_SET_NO": 999, "REV_AT_EPOCH": 233, "BSTAR": -0.0037031267, "MEAN_MOTION_DOT": -0.01326588, "MEAN_MOTION_DDOT": 0.00051661802}, "tle": {"line1": "1 66934U 25286K   25348.83340278 -.01326588  51662-3 -37031-2 0  9992", "line2": "2 66934  53.1566  40.0286 0000700  68.4195 204.2826 15.93053674  2331"}}, "geometry": {"type": "Point", "coordinates": [72.81069583642814, 38.162202729334986]}}, {"type": "Feature", "properties": {"norad_id": 66935, "name": "STARLINK-36127", "group": "last-30-days", "lat": 39.55073509875862, "lon": 74.96192681648935, "alt_km": 292.58673167770667, "timestamp": "2025-12-15T11:38:35.908181+00:00", "meta": {"OBJECT_NAME": "STARLINK-36127", "OBJECT_ID": "2025-286L", "EPOCH": "2025-12-14T20:00:06.000192", "MEAN_MOTION": 15.93131294, "ECCENTRICITY": 6.762e-05, "INCLINATION": 53.1566, "RA_OF_ASC_NODE": 40.0247, "ARG_OF_PERICENTER": 75.4631, "MEAN_ANOMALY": 199.2497, "EPHEMERIS_TYPE": 0, "CLASSIFICATION_TYPE": "U", "NORAD_CAT_ID": 66935, "ELEMENT_SET_NO": 999, "REV_AT_EPOCH": 233, "BSTAR": -0.0037211935, "MEAN_MOTION_DOT": -0.01338365, "MEAN_MOTION_DDOT": 0.00052540887}, "tle": {"line1": "1 66935U 25286L   25348.83340278 -.01338365  52541-3 -37212-2 0  9997", "line2": "2 66935  53.1566  40.0247 0000676  75.4631 199.2497 15.93131294  2336"}}, "geometry": {"type": "Point", "coordinates": [74.96192681648935, 39.55073509875862]}}, {"type": "Feature", "properties": {"norad_id": 66936, "name": "STARLINK-36160", "group": "last-30-days", "lat": 40.65601396964682, "lon": 76.78592144083322, "alt_km": 292.22892745980243, "timestamp": "2025-12-15T11:38:35.908191+00:00", "meta": {"OBJECT_NAME": "STARLINK-36160", "OBJECT_ID": "2025-286M", "EPOCH": "2025-12-14T20:00:06.000192", "MEAN_MOTION": 15.93201822, "ECCENTRICITY": 7.534e-05, "INCLINATION": 53.1566, "RA_OF_ASC_NODE": 40.0214, "ARG_OF_PERICENTER": 75.6424, "MEAN_ANOMALY": 200.7154, "EPHEMERIS_TYPE": 0, "CLASSIFICATION_TYPE": "U", "NORAD_CAT_ID": 66936, "ELEMENT_SET_NO": 999, "REV_AT_EPOCH": 233, "BSTAR": -0.0037668315, "MEAN_MOTION_DOT": -0.01359563, "MEAN_MOTION_DDOT": 0.00054105612}, "tle": {"line1": "1 66936U 25286M   25348.83340278 -.01359563  54106-3 -37668-2 0  9995", "line2": "2 66936  53.1566  40.0214 0000753  75.6424 200.7154 15.93201822  2332"}}, "geometry": {"type": "Point", "coordinates": [76.78592144083322, 40.65601396964682]}}, {"type": "Feature", "properties": {"norad_id": 66937, "name": "STARLINK-36165", "group": "last-30-days", "lat": 41.75756050318448, "lon": 78.71741286261071, "alt_km": 291.8295313655235, "timestamp": "2025-12-15T11:38:35.908200+00:00", "meta": {"OBJECT_NAME": "STARLINK-36165", "OBJECT_ID": "2025-286N", "EPOCH": "2025-12-14T20:00:06.000192", "MEAN_MOTION": 15.93271313, "ECCENTRICITY": 7.983e-05, "INCLINATION": 53.1565, "RA_OF_ASC_NODE": 40.0175, "ARG_OF_PERICENTER": 66.8957, "MEAN_ANOMALY": 211.1443, "EPHEMERIS_TYPE": 0, "CLASSIFICATION_TYPE": "U", "NORAD_CAT_ID": 66937, "ELEMENT_SET_NO": 999, "REV_AT_EPOCH": 233, "BSTAR": -0.0037982468, "MEAN_MOTION_DOT": -0.01375732, "MEAN_MOTION_DDOT": 0.00055322861}, "tle": {"line1": "1 66937U 25286N   25348.83340278 -.01375732  55323-3 -37982-2 0  9993", "line2": "2 66937  53.1565  40.0175 0000798  66.8957 211.1443 15.93271313  2339"}}, "geometry": {"type": "Point", "coordinates": [78.71741286261071, 41.75756050318448]}}]}